STARLINK-31603          
1 59201U 24046A   26165.01613032 -.00002364  00000+0 -67710-4 0  9990
2 59201  53.1611  68.1956 0001151 102.8905 257.2224 15.30210142127793
STARLINK-31602          
1 59202U 24046B   26164.97563283 -.00000508  00000+0 -39009-5 0  9996
2 59202  53.1611  66.5305 0001559  76.0948 284.0228 15.34404301127816
STARLINK-31577          
1 59203U 24046C   26165.58335648  .00058600  00000+0  17338-2 0  9999
2 59203  53.1588  63.4101 0001188  93.9424 164.5789 15.34366757  5872
STARLINK-31522          
1 59204U 24046D   26165.01402053  .00001305  00000+0  56217-4 0  9994
2 59204  53.1606  68.1770 0001338  70.1954 289.9191 15.30185931127794
STARLINK-31586          
1 59205U 24046E   26165.44590190 -.00001572  00000+0 -40966-4 0  9994
2 59205  53.1605  65.8964 0001627  86.5244 273.5943 15.30186645127862
STARLINK-31247          
1 59206U 24046F   26165.45961984 -.00000808  00000+0 -15166-4 0  9994
2 59206  53.1609  65.9773 0001434  76.2349 283.8812 15.30191559127863
STARLINK-31591          
1 59207U 24046G   26165.43368034  .00000086  00000+0  13679-4 0  9993
2 59207  53.1623  64.4095 0001298  99.6878 260.4271 15.34389662127885
STARLINK-31576          
1 59208U 24046H   26165.43788908 -.00001048  00000+0 -19882-4 0  9993
2 59208  53.1616  64.4330 0001456  86.2458 273.8711 15.34386919127881
STARLINK-31601          
1 59209U 24046J   26165.41263892 -.00000318  00000+0  17090-5 0  9990
2 59209  53.1613  64.2786 0001225 110.7805 249.3329 15.34393582127882
STARLINK-31520          
1 59210U 24046K   26164.99925070 -.00001444  00000+0 -36643-4 0  9993
2 59210  53.1611  68.0820 0001525 100.9722 259.1451 15.30184820127799
STARLINK-31496          
1 59211U 24046L   26165.39163912  .00000062  00000+0  14217-4 0  9994
2 59211  53.1605  53.4909 0001067  97.0848 263.0274 15.30195615128023
STARLINK-31492          
1 59212U 24046M   26165.01823515  .00002065  00000+0  81810-4 0  9994
2 59212  53.1618  68.2044 0000816 133.6782 226.4286 15.30202907127788
STARLINK-31517          
1 59213U 24046N   26165.43999715  .00000024  00000+0  11849-4 0  9995
2 59213  53.1615  64.4733 0001361  88.7614 271.3545 15.34387046127878
STARLINK-31604          
1 59214U 24046P   26165.43579709  .00001905  00000+0  67554-4 0  9996
2 59214  53.1598  64.4231 0000819  78.4278 281.6816 15.34374287127879
STARLINK-31434          
1 59215U 24046Q   26165.01972386 -.00001639  00000+0 -37400-4 0  9992
2 59215  53.1620  66.0961 0001457  98.2607 261.8561 15.34391281127813
STARLINK-31417          
1 59216U 24046R   26165.01718355  .00000272  00000+0  21294-4 0  9991
2 59216  53.1618  68.2017 0001230 105.4036 254.7101 15.30202363127665
STARLINK-31499          
1 59217U 24046S   26165.42317171 -.00001621  00000+0 -36858-4 0  9991
2 59217  53.1620  64.3410 0001471  85.1284 274.9887 15.34380502127873
STARLINK-31421          
1 59218U 24046T   26165.41473687  .00002092  00000+0  72997-4 0  9991
2 59218  53.1609  64.3125 0001245  79.3289 280.7854 15.34409842127871
STARLINK-31518          
1 59219U 24046U   26165.42736857 -.00001287  00000+0 -26977-4 0  9998
2 59219  53.1617  64.3705 0001384  92.6851 267.4311 15.34394647127878
STARLINK-31523          
1 59220U 24046V   26165.44210045  .00001010  00000+0  41040-4 0  9998
2 59220  53.1609  64.4558 0001228  95.3126 264.8017 15.34374162127874
STARLINK-31516          
1 59221U 24046W   26165.41895292 -.00000488  00000+0 -33025-5 0  9994
2 59221  53.1614  64.3159 0001337  98.6601 261.4553 15.34391476127877
STARLINK-31490          
1 59222U 24046X   26165.01507358 -.00001300  00000+0 -31764-4 0  9995
2 59222  53.1597  68.1753 0001146  76.9956 283.1173 15.30198893127783
STARLINK-31420          
1 59223U 24046Y   26165.01190665  .00000316  00000+0  22797-4 0  9995
2 59223  53.1615  68.1590 0001178  99.3196 260.7938 15.30195657127789
STARLINK-31305          
1 59232U 24049B   26164.71104148  .00000017  00000+0  10152-4 0  9995
2 59232  42.9994 321.0398 0001254 264.0993  95.9716 15.27576892127077
STARLINK-31459          
1 59233U 24049C   26165.11878383 -.00000042  00000+0  79972-5 0  9995
2 59233  42.9988 318.9614 0001225 262.2548  97.8165 15.27574840127149
STARLINK-31438          
1 59234U 24049D   26165.65988753  .00000196  00000+0  16678-4 0  9990
2 59234  43.0079 304.8977 0001894 275.6601  84.4035 15.27576088127356
STARLINK-31467          
1 59235U 24049E   26165.11621865 -.00000967  00000+0 -25627-4 0  9992
2 59235  43.0005 318.9405 0000964 264.5815  95.4927 15.27571587127158
STARLINK-31444          
1 59236U 24049F   26165.58335648  .00099806  00000+0  27866-2 0  9998
2 59236  42.9996 242.7149 0003610   4.6185 266.1405 15.35666742  5845
STARLINK-31505          
1 59237U 24049G   26165.12264127 -.00001683  00000+0 -51671-4 0  9993
2 59237  42.9942 318.9936 0001633 285.5883  74.4789 15.27572408127155
STARLINK-31494          
1 59238U 24049H   26164.70847616 -.00000295  00000+0 -11982-5 0  9997
2 59238  43.0040 321.0396 0001415 263.1898  96.8793 15.27573896127096
