OBJECT_NAME,OBJECT_ID,EPOCH,MEAN_MOTION,ECCENTRICITY,INCLINATION,RA_OF_ASC_NODE,ARG_OF_PERICENTER,MEAN_ANOMALY,EPHEMERIS_TYPE,CLASSIFICATION_TYPE,NORAD_CAT_ID,ELEMENT_SET_NO,REV_AT_EPOCH,BSTAR,MEAN_MOTION_DOT,MEAN_MOTION_DDOT
STARLINK-31603,2024-046A,2026-06-14T00:23:13.659648,15.30210142,.00011515,53.1611,68.1956,102.8905,257.2224,0,U,59201,999,12779,-.67709539E-4,-.2364E-4,0
STARLINK-31602,2024-046B,2026-06-13T23:24:54.676512,15.34404301,.00015593,53.1611,66.5305,76.0948,284.0228,0,U,59202,999,12781,-.3900928E-5,-.508E-5,0
STARLINK-31577,2024-046C,2026-06-14T14:00:01.999872,15.34366757,.00011887,53.1588,63.4101,93.9424,164.5789,0,U,59203,999,587,.17338225E-2,.586E-3,0
STARLINK-31522,2024-046D,2026-06-14T00:20:11.373792,15.30185931,.00013384,53.1606,68.1770,70.1954,289.9191,0,U,59204,999,12779,.56216772E-4,.1305E-4,0
STARLINK-31586,2024-046E,2026-06-14T10:42:05.924160,15.30186645,.00016276,53.1605,65.8964,86.5244,273.5943,0,U,59205,999,12786,-.4096575E-4,-.1572E-4,0
STARLINK-31247,2024-046F,2026-06-14T11:01:51.154176,15.30191559,.00014348,53.1609,65.9773,76.2349,283.8812,0,U,59206,999,12786,-.15166405E-4,-.808E-5,0
STARLINK-31591,2024-046G,2026-06-14T10:24:29.981376,15.34389662,.00012983,53.1623,64.4095,99.6878,260.4271,0,U,59207,999,12788,.13679118E-4,.86E-6,0
STARLINK-31576,2024-046H,2026-06-14T10:30:33.616512,15.34386919,.00014566,53.1616,64.4330,86.2458,273.8711,0,U,59208,999,12788,-.19882361E-4,-.1048E-4,0
STARLINK-31601,2024-046J,2026-06-14T09:54:12.002688,15.34393582,.00012257,53.1613,64.2786,110.7805,249.3329,0,U,59209,999,12788,.1708964E-5,-.318E-5,0
STARLINK-31520,2024-046K,2026-06-13T23:58:55.260480,15.30184820,.00015254,53.1611,68.0820,100.9722,259.1451,0,U,59210,999,12779,-.36642532E-4,-.1444E-4,0
STARLINK-31496,2024-046L,2026-06-14T09:23:57.619968,15.30195615,.00010672,53.1605,53.4909,97.0848,263.0274,0,U,59211,999,12802,.1421688E-4,.62E-6,0
STARLINK-31492,2024-046M,2026-06-14T00:26:15.516960,15.30202907,.00008164,53.1618,68.2044,133.6782,226.4286,0,U,59212,999,12778,.81809634E-4,.2065E-4,0
STARLINK-31517,2024-046N,2026-06-14T10:33:35.753760,15.34387046,.00013612,53.1615,64.4733,88.7614,271.3545,0,U,59213,999,12787,.11848648E-4,.24E-6,0
STARLINK-31604,2024-046P,2026-06-14T10:27:32.868576,15.34374287,.00008191,53.1598,64.4231,78.4278,281.6816,0,U,59214,999,12787,.67553579E-4,.1905E-4,0
STARLINK-31434,2024-046Q,2026-06-14T00:28:24.141504,15.34391281,.00014576,53.1620,66.0961,98.2607,261.8561,0,U,59215,999,12781,-.37400449E-4,-.1639E-4,0
STARLINK-31417,2024-046R,2026-06-14T00:24:44.658720,15.30202363,.000123,53.1618,68.2017,105.4036,254.7101,0,U,59216,999,12766,.21294375E-4,.272E-5,0
STARLINK-31499,2024-046S,2026-06-14T10:09:22.035744,15.34380502,.00014717,53.1620,64.3410,85.1284,274.9887,0,U,59217,999,12787,-.36857625E-4,-.1621E-4,0
STARLINK-31421,2024-046T,2026-06-14T09:57:13.265568,15.34409842,.0001245,53.1609,64.3125,79.3289,280.7854,0,U,59218,999,12787,.72996872E-4,.2092E-4,0
STARLINK-31518,2024-046U,2026-06-14T10:15:24.644448,15.34394647,.00013849,53.1617,64.3705,92.6851,267.4311,0,U,59219,999,12787,-.26976842E-4,-.1287E-4,0
STARLINK-31523,2024-046V,2026-06-14T10:36:37.478880,15.34374162,.00012288,53.1609,64.4558,95.3126,264.8017,0,U,59220,999,12787,.41039956E-4,.101E-4,0
STARLINK-31516,2024-046W,2026-06-14T10:03:17.532288,15.34391476,.00013375,53.1614,64.3159,98.6601,261.4553,0,U,59221,999,12787,-.330249E-5,-.488E-5,0
STARLINK-31490,2024-046X,2026-06-14T00:21:42.357312,15.30198893,.00011467,53.1597,68.1753,76.9956,283.1173,0,U,59222,999,12778,-.31764153E-4,-.13E-4,0
STARLINK-31420,2024-046Y,2026-06-14T00:17:08.734560,15.30195657,.0001178,53.1615,68.1590,99.3196,260.7938,0,U,59223,999,12778,.2279734E-4,.316E-5,0
STARLINK-31305,2024-049B,2026-06-13T17:03:53.983872,15.27576892,.00012544,42.9994,321.0398,264.0993,95.9716,0,U,59232,999,12707,.10152249E-4,.17E-6,0
STARLINK-31459,2024-049C,2026-06-14T02:51:02.922912,15.27574840,.0001225,42.9988,318.9614,262.2548,97.8165,0,U,59233,999,12714,.7997223E-5,-.42E-6,0
STARLINK-31438,2024-049D,2026-06-14T15:50:14.282592,15.27576088,.00018947,43.0079,304.8977,275.6601,84.4035,0,U,59234,999,12735,.16677949E-4,.196E-5,0
STARLINK-31467,2024-049E,2026-06-14T02:47:21.291360,15.27571587,.00009647,43.0005,318.9405,264.5815,95.4927,0,U,59235,999,12715,-.25626811E-4,-.967E-5,0
STARLINK-31444,2024-049F,2026-06-14T14:00:01.999872,15.35666742,.00036108,42.9996,242.7149,4.6185,266.1405,0,U,59236,999,584,.27865921E-2,.99806E-3,0
STARLINK-31505,2024-049G,2026-06-14T02:56:36.205728,15.27572408,.00016339,42.9942,318.9936,285.5883,74.4789,0,U,59237,999,12715,-.51670857E-4,-.1683E-4,0
STARLINK-31494,2024-049H,2026-06-13T17:00:12.340224,15.27573896,.00014155,43.0040,321.0396,263.1898,96.8793,0,U,59238,999,12709,-.1198162E-5,-.295E-5,0
